ONEWEB-0603             
1 54667U 22166AB  23002.33334491 -.00792736  00000+0 -14896+0 0  9994
2 54667  86.5778 147.6907 0009562 153.6943  42.6186 14.67478895  4367
ONEWEB-0604             
1 54668U 22166AC  23002.08334491 -.00801301  00000+0 -13773+0 0  9999
2 54668  86.4690 147.6938 0008593 152.6784 268.9341 14.71424549  4334
ONEWEB-0605             
1 54669U 22166AD  23002.58334491 -.00879866  00000+0 -16897+0 0  9996
2 54669  86.5921 147.5965 0008646 156.1063 261.3538 14.66823513  4401
ONEWEB-0606             
1 54670U 22166AE  23002.58334491 -.00898125  00000+0 -15566+0 0  9999
2 54670  86.4802 147.4741 0009207 150.4457  70.0885 14.71381324  4404
ONEWEB-0607             
1 54671U 22166AF  23002.58334491 -.00907231  00000+0 -15586+0 0  9991
2 54671  86.6045 147.5587 0009301 151.3561  99.9106 14.71793194  4404
ONEWEB-0608             
1 54672U 22166AG  23002.00001157 -.00914714  00000+0 -14205+0 0  9990
2 54672  86.6172 147.8005 0013309 150.7086  17.7164 14.76112895  1308
ONEWEB-0610             
1 54673U 22166AH  23002.00001157 -.00850820  00000+0 -13851+0 0  9994
2 54673  86.4753 147.7170 0009583 150.4334 253.6520 14.73928576  1301
ONEWEB-0611             
1 54674U 22166AJ  23002.00001157 -.00896314  00000+0 -14408+0 0  9992
2 54674  86.4809 147.7169 0012296 146.5385 323.3010 14.74591192  1309
ONEWEB-0612             
1 54675U 22166AK  23002.00001157 -.00916130  00000+0 -16058+0 0  9995
2 54675  86.4458 147.7268 0008491 155.3596 165.3312 14.70958483  1309
ONEWEB-0615             
1 54676U 22166AL  23002.08334491 -.00888717  00000+0 -14602+0 0  9996
2 54676  86.4790 147.6841 0011054 145.9620  12.3552 14.73640516  4338
ONEWEB-0655             
1 54677U 22166AM  23002.33334491 -.00789159  00000+0 -12932+0 0  9999
2 54677  86.4764 147.5642 0010722 148.1386 255.4660 14.73430447  4377
ONEWEB-0659             
1 54678U 22166AN  23002.08334491 -.01250838  00000+0 -15856+0 0  9998
2 54678  86.5577 147.6768 0011012 145.7775 297.2871 14.85086605  4340
ONEWEB-0685             
1 54679U 22166AP  23002.58334491 -.00848631  00000+0 -14970+0 0  9993
2 54679  86.4766 147.4806 0008741 154.4014   1.3172 14.70451267  4408
ONEWEB-0712             
1 54680U 22166AQ  23002.52356524 -.00167782  00000+0 -17218-1 0  9991
2 54680  86.5187 147.4677 0013175 148.4968 211.7052 14.91383744  4403
ONEWEB-0714             
1 54681U 22166AR  23002.58334491 -.01252683  00000+0 -15170+0 0  9996
2 54681  86.5538 147.4450 0013965 154.1866 166.2970 14.86912944  4419
2022-167A               
1 54682U 22167A   23002.01841483  .00010945  00000+0  69303-3 0  9991
2 54682  97.5351 141.5893 0014250 180.6903 315.6587 15.09059359  3584
2022-167B               
1 54683U 22167B   23002.01356776  .00048463  00000+0  53458-3 0  9998
2 54683  97.5867 142.9715 0200199 240.1192 117.9957 15.42169614  3639
CAS-5A (FO-118)         
1 54684U 22167C   23002.40559880  .00008862  00000+0  56157-3 0  9991
2 54684  97.5383 141.9807 0014542 181.4365 263.5051 15.09088945  3631
2022-167D               
1 54685U 22167D   23002.00804775  .00006306  00000+0  39525-3 0  9995
2 54685  97.5435 141.6269 0013467 194.9389 302.6575 15.09621471  3575
2022-167E               
1 54686U 22167E   23002.00810235  .00006258  00000+0  39234-3 0  9997
2 54686  97.5393 141.6142 0013169 195.1461 302.4255 15.09616608  3571
2022-167F               
1 54687U 22167F   23002.39476441  .00010584  00000+0  65724-3 0  9997
2 54687  97.5382 141.9940 0013883 194.3845 250.6337 15.09785040  3638
2022-167G               
1 54688U 22167G   23002.39308752  .00010836  00000+0  67049-3 0  9999
2 54688  97.5357 141.9877 0014254 195.5276 248.8035 15.09904903  3639
2022-167H               
1 54689U 22167H   23002.00617270  .00006270  00000+0  39163-3 0  9999
2 54689  97.5456 141.6360 0014350 195.6504 302.1311 15.09741983  3577
2022-167J               
1 54690U 22167J   23002.00352389  .00006460  00000+0  40164-3 0  9992
2 54690  97.5334 141.6026 0014636 198.2270 297.9430 15.09894817  3577
2022-167K               
1 54691U 22167K   23002.00448233  .00010445  00000+0  64737-3 0  9997
2 54691  97.5406 141.6218 0014771 196.0246 299.0843 15.09849136  3575
2022-167L               
1 54692U 22167L   23002.00340763  .00006413  00000+0  39859-3 0  9994
2 54692  97.5445 141.6353 0015337 197.3042 298.8640 15.09901291  3579
2022-167M               
1 54693U 22167M   23002.01807566  .00012158  00000+0  76818-3 0  9994
2 54693  97.5406 141.6065 0014584 181.3661 315.1018 15.09107367  3541
2022-167N               
1 54694U 22167N   23002.00139174  .00006610  00000+0  40941-3 0  9991
2 54694  97.5358 141.6113 0015509 198.7941 295.6602 15.10012809  3575
2022-167P               
1 54695U 22167P   23002.00136042  .00006571  00000+0  40693-3 0  9993
2 54695  97.5404 141.6241 0015815 198.2973 296.1683 15.10014156  3572
FALCON 9 R/B            
1 54698U 22168C   22345.32368031  .00002049 -64822-5  00000+0 0  9995
2 54698  29.0000  41.2312 0098300  59.8200  27.0300 16.15592824    07
2022-169A               
1 54699U 22169A   23002.24572613  .00000460  00000+0  23637-3 0  9993
2 54699  59.9963  88.1057 0004426 269.2253  90.8289 14.28666488  2988
2022-169B               
1 54700U 22169B   23002.25158225  .00000012  00000+0  58708-4 0  9997
2 54700  59.9962  88.1330 0006575 259.8574 100.1757 14.28670585  2980
2022-169C               
1 54701U 22169C   23002.22797977  .00000226  00000+0  94878-4 0  9993
2 54701  59.9576  85.7488 0095398  57.3138 303.7084 14.49503921  3029
2022-169D               
1 54702U 22169D   23002.24518687  .00000581  00000+0  28155-3 0  9993
2 54702  59.9985  88.1099 0006055 273.6267  86.4116 14.29153941  2994
SZ-14 MODULE            
1 54704U 22060G   23001.98849579  .00027747  00000+0  31923-3 0  9992
2 54704  41.4881  88.5653 0009131 267.7147 264.9033 15.61326164  4209
GALAXY 35 (G-35)        
1 54741U 22170A   23002.55899637  .00000144  00000+0  00000+0 0  9999
2 54741   0.0162 254.7464 0002140 112.3417 146.0036  1.00271720   257
GALAXY 36 (G-36)        
1 54742U 22170B   23002.27204922  .00000143  00000+0  00000+0 0  9995
2 54742   0.0127  72.4995 0002031 198.2236 138.9098  1.00274904   260
METEOSAT-12 (MTG-1)     
1 54743U 22170C   22353.31524981 -.00000002  00000+0  00000+0 0  9994
2 54743   5.5504 217.8990 7131836 181.4542 110.3708  2.25104636   115
ARIANE 5 DEB [SYLDA]    
1 54744U 22170D   22362.47558301  .00019359  00000+0  48906-2 0  9999
2 54744   5.9816 212.9323 7277424 190.0227 137.2739  2.28861921   327
ARIANE 5 R/B            
1 54745U 22170E   22361.54777604  .00004540  00000+0  84527-3 0  9992
2 54745   5.7426 215.2605 7276934 187.1761 149.0086  2.29704568   316
2022-171A               
1 54746U 22171A   23002.29883102 -.00000037  00000+0  00000+0 0  9998
2 54746  34.9942 218.7421 0006617  62.8588 271.0319 15.22436296  2826
2022-171B               
1 54747U 22171B   23002.32173235  .00023740  00000+0  95216-3 0  9994
2 54747  34.9951 218.4247 0006296  63.6283 100.9511 15.24082951  2803
2022-171C               
1 54748U 22171C   23001.65674397 -.00000037  00000+0  00000+0 0  9993
2 54748  34.9940 222.7552 0006114 117.9997 299.3520 15.22281797  2702
2022-171D               
1 54749U 22171D   23002.56556413  .00026450  00000+0  10466-2 0  9999
2 54749  34.9963 216.8239 0006902  76.3801  13.0405 15.24514267  2842
2022-171E               
1 54750U 22171E   23001.92892965 -.00000038  00000+0  00000+0 0  9990
2 54750  34.9945 221.0058 0011970  62.1557  62.8467 15.22329828  2736
2022-167Q               
1 54751U 22167Q   23001.94200789  .00008184  00000+0  50855-3 0  9991
2 54751  97.5370 141.5485 0014161 197.2057 316.2058 15.09833009  3227
SHIYAN 21               
1 54752U 22172A   23001.90530093  .00009256  00000+0  33380-3 0  9993
2 54752  36.0020  50.7484 0012500  88.8543 261.9583 15.27837074  2547
SWOT                    
1 54754U 22173A   23002.49056387  .00137941  00000+0  76186-1 0  9992
2 54754  77.5909 302.7255 0006074 319.2973  40.6937 14.10414665  2394
O3B MPOWER-A F1         
1 54755U 22174A   22356.18260191  .00000047  00000+0  00000+0 0  9997
2 54755   9.6319 253.0871 1859317 195.2651 337.7567  7.25479946   387
O3B MPOWER-A F2         
1 54756U 22174B   23001.28664324  .00000048  00000+0  00000+0 0  9994
2 54756   9.6150 238.5471 1870572 224.0437 119.4660  7.26306270  1115
FALCON 9 R/B            
1 54757U 22174C   22363.39930934  .00000051  00000+0  19909-2 0  9995
2 54757   9.6155 242.6686 1870445 215.9316 129.9431  7.26306030   888
STARLINK-5464           
1 54758U 22175A   23002.09896713  .00032369  00000+0  23472-3 0  9999
2 54758  53.2151 230.5152 0001650  35.1555 324.9573 15.73143704   864
STARLINK-5215           
1 54759U 22175B   23002.00001157 -.00006835  00000+0 -44310-4 0  9997
2 54759  53.2145 231.0008 0001657  42.4079 118.6891 15.73203087  1305
STARLINK-5220           
1 54760U 22175C   23002.03524467  .00064452  00000+0  46135-3 0  9999
2 54760  53.2149 230.8282 0001253  98.6676 261.4486 15.73137583  2136
STARLINK-5202           
1 54761U 22175D   23002.09887767  .00069669  00000+0  49760-3 0  9993
2 54761  53.2148 230.5134 0001082  83.2001 276.9143 15.73157909  2147
STARLINK-5214           
1 54762U 22175E   23002.09844687  .00056409  00000+0  40370-3 0  9994
2 54762  53.2146 230.5102 0000881 125.5460 234.5643 15.73196464  2140
STARLINK-5191           
1 54763U 22175F   23002.09856036  .00067077  00000+0  47884-3 0  9996
2 54763  53.2148 230.5120 0001021 104.8732 255.2402 15.73185229  2142
STARLINK-5458           
1 54764U 22175G   23002.00001157 -.00526965  00000+0 -39662-2 0  9996
2 54764  53.2163 230.9949 0001155 103.2508  60.2641 15.73343617  1308
STARLINK-5466           
1 54765U 22175H   23002.09832917  .00044236  00000+0  31851-3 0  9999
2 54765  53.2146 230.5101 0001930  65.7928 294.3293 15.73157447  2156
